OBJECT_NAME,OBJECT_ID,EPOCH,MEAN_MOTION,ECCENTRICITY,INCLINATION,RA_OF_ASC_NODE,ARG_OF_PERICENTER,MEAN_ANOMALY,EPHEMERIS_TYPE,CLASSIFICATION_TYPE,NORAD_CAT_ID,ELEMENT_SET_NO,REV_AT_EPOCH,BSTAR,MEAN_MOTION_DOT,MEAN_MOTION_DDOT
COSMOS 2534 (758),2019-030A,2026-07-16T15:35:19.703040,2.13102191,.0013502,64.3705,191.6243,275.0108,146.6615,0,U,44299,999,5555,0,.52E-6,0
BEIDOU-3 IGSO-2 (C39),2019-035A,2026-07-18T21:42:34.638912,1.00256282,.003925,55.2516,158.5837,216.2895,5.7643,0,U,44337,999,2598,0,-.118E-5,0
GPS BIII-2  (PRN 18),2019-056A,2026-07-18T19:07:26.218272,2.00570232,.006359,55.6200,329.8860,198.2191,333.5923,0,U,44506,999,5070,0,-.104E-5,0
BEIDOU-3 M24 (C46),2019-061A,2026-07-17T20:22:15.399840,1.86229139,.00086561,54.3974,181.6938,359.7978,0.1726,0,U,44542,999,4636,0,.52E-6,0
BEIDOU-3 M23 (C45),2019-061B,2026-07-18T14:53:49.828704,1.86227518,.0005988,54.3960,181.6358,341.5173,87.3875,0,U,44543,999,4638,0,.6E-6,0
EUTELSAT 5 WEST B (EGNOS/PRN 121),2019-067A,2026-07-18T18:58:38.631360,1.00271159,.00031,0.0783,320.3585,157.4287,98.4504,0,U,44624,999,2475,0,-.49E-6,0
BEIDOU-3 M22 (C44),2019-078A,2026-07-13T09:26:32.496288,1.86227300,.00057504,53.9106,298.9058,50.3045,309.7753,0,U,44793,999,4513,0,-.62E-6,0
BEIDOU-3 M21 (C43),2019-078B,2026-07-18T08:46:57.692928,1.86227746,.0003558,53.8786,298.6908,50.4720,309.5991,0,U,44794,999,4523,0,-.87E-6,0
COSMOS 2544 (759),2019-088A,2026-07-18T11:16:33.807936,2.13102896,.0012069,65.5825,72.6872,253.1626,106.7768,0,U,44850,999,5138,0,-.34E-6,0
BEIDOU-3 M19 (C41),2019-090A,2026-07-18T07:35:15.367776,1.86231447,.0016636,56.5859,61.7618,297.6233,226.6293,0,U,44864,999,4481,0,-.65E-6,0
BEIDOU-3 M20 (C42),2019-090B,2026-07-18T05:58:35.347872,1.86231410,.00142806,56.5878,61.7982,312.4225,256.4049,0,U,44865,999,4479,0,-.64E-6,0
BEIDOU-3 G2 (C60),2020-017A,2026-07-18T17:58:34.553856,1.00272380,.0001801,2.9271,47.7925,59.1114,179.3024,0,U,45344,999,2357,0,-.148E-5,0
COSMOS 2545 (760),2020-018A,2026-07-17T17:25:47.936064,2.13102350,.00096638,64.3350,311.3457,229.7748,130.1625,0,U,45358,999,4931,0,-.69E-6,0
BEIDOU-3 G3 (C61),2020-040A,2026-07-18T17:10:20.673120,1.00274773,.0002228,2.5232,67.4992,309.4166,287.6963,0,U,45807,999,2238,0,-.361E-5,0
GPS BIII-3  (PRN 23),2020-041A,2026-07-18T21:16:54.945120,2.00557912,.0065386,56.6910,27.7139,204.6818,329.0462,0,U,45854,999,4467,0,-.88E-6,0
GALAXY 30 (WAAS/PRN 135),2020-056C,2026-07-18T14:15:38.763360,1.00272702,.0002222,0.0188,55.7560,63.4658,266.0802,0,U,46114,999,2160,0,.3E-6,0
COSMOS 2547 (705K),2020-075A,2026-07-15T13:40:19.372224,2.13099910,.00094588,64.6014,191.5282,239.8249,120.0839,0,U,46805,999,4451,0,.54E-6,0
GPS BIII-4  (PRN 14),2020-078A,2026-07-18T18:09:33.473088,2.00565020,.0074632,53.9768,209.4978,207.9172,209.3199,0,U,46826,999,4214,0,.48E-6,0
GPS BIII-5  (PRN 11),2021-054A,2026-07-18T10:02:35.692224,2.00567013,.0026523,55.1577,331.2038,228.5643,130.8522,0,U,48859,999,3737,0,-.104E-5,0
QZS-1R (QZSS/PRN 196),2021-096A,2026-07-18T13:41:38.923296,1.00244289,.075544,37.5244,79.1164,272.2947,281.6932,0,U,49336,999,1732,0,-.316E-5,0
GSAT0223 (GALILEO 27),2021-116A,2026-07-16T21:55:53.520960,1.70476073,.00024409,57.1499,340.8723,195.3183,168.4273,0,U,49809,999,2869,0,-.103E-5,0
GSAT0224 (GALILEO 28),2021-116B,2026-07-18T11:48:53.183808,1.70476262,.0001876,57.1493,340.8281,182.1196,183.0012,0,U,49810,999,2874,0,-.105E-5,0
COSMOS 2557 (706K),2022-075A,2026-07-15T17:36:40.979232,2.13102146,.00108557,64.2802,313.4798,271.2186,88.6706,0,U,52984,999,3132,0,-.64E-6,0
COSMOS 2559 (707K),2022-130A,2026-07-17T21:35:44.105856,2.13101711,.00131306,64.2511,313.4857,181.3333,178.6825,0,U,54031,999,2934,0,-.72E-6,0
COSMOS 2564 (761),2022-161A,2026-07-17T17:49:47.483616,2.13102013,.00122021,64.7440,191.6974,224.8378,135.0614,0,U,54377,999,2828,0,.58E-6,0
GPS BIII-6  (PRN 28),2023-009A,2026-07-18T15:32:49.538976,2.00569402,.0006202,55.1246,147.2822,322.6712,241.0430,0,U,55268,999,2587,0,.33E-6,0
BEIDOU-3 G4 (C62),2023-066A,2026-07-18T17:18:42.372000,1.00271600,.0005001,0.4577,339.9779,184.9198,171.3668,0,U,56564,999,1170,0,-.287E-5,0
NVS-01 (IRNSS-1J),2023-076A,2026-07-18T17:15:42.659136,1.00277063,.0003058,2.0933,242.9051,19.5721,62.4094,0,U,56759,999,1143,0,-.342E-5,0
COSMOS 2569 (703K),2023-114A,2026-07-18T05:23:15.089280,2.13103790,.0009565,65.3199,71.5741,295.7059,64.2679,0,U,57517,999,2292,0,-.33E-6,0
BEIDOU-3 M28 (C50),2023-207A,2026-07-17T21:44:31.744608,1.86229739,.00023361,55.7801,61.2668,7.0710,353.0002,0,U,58654,999,1741,0,-.63E-6,0
BEIDOU-3 M26 (C48),2023-207B,2026-07-18T05:46:08.416416,1.86229724,.00018369,55.7828,61.2421,324.6649,35.3897,0,U,58655,999,1740,0,-.66E-6,0
